NORAD_CAT_ID,OBJECT_NAME,OBJECT_TYPE,EPOCH,MEAN_MOTION,ECCENTRICITY,INCLINATION,RA_OF_ASC_NODE,ARG_OF_PERICENTER,MEAN_ANOMALY,BSTAR,MEAN_MOTION_DOT,MEAN_MOTION_DDOT,TLE_LINE0,TLE_LINE1,TLE_LINE2,SEMIMAJOR_AXIS,PERIOD,APOGEE,PERIGEE,DECAYED
53019.0,STARLINK-4282,PAYLOAD,2023-01-09 01:13:52,15.08839653,0.0002322,53.216,231.983,53.1277,306.9927,0.0002067,3.003e-05,0.0,0 STARLINK-4282,1 53019U 22076AK  23009.05130037  .00003003  00000-0  20670-3 0  9992,2 53019  53.2160 231.9830 0002322  53.1277 306.9927 15.08839653 28999,6917.880999999999,95.438,541.3530000000002,538.14,0.0
53019.0,STARLINK-4282,PAYLOAD,2023-01-09 07:35:25,15.08836395,0.0002398,53.2147,230.7939,51.7841,308.3367,0.00012501,1.702e-05,0.0,0 STARLINK-4282,1 53019U 22076AK  23009.31626207  .00001702  00000-0  12501-3 0  9998,2 53019  53.2147 230.7939 0002398  51.7841 308.3367 15.08836395 28562,6917.891,95.438,541.415,538.097,0.0
53019.0,STARLINK-4282,PAYLOAD,2023-01-09 15:32:21,15.08829414,0.0002428,53.2164,229.3066,49.0995,311.0207,0.00024194,3.563e-05,0.0,0 STARLINK-4282,1 53019U 22076AK  23009.64746781  .00003563  00000-0  24194-3 0  9992,2 53019  53.2164 229.3066 0002428  49.0995 311.0207 15.08829414 29086,6917.913000000001,95.438,541.457,538.0980000000002,0.0
53019.0,STARLINK-4282,PAYLOAD,2023-01-09 23:29:16,15.08846437,0.0002831,53.2168,227.8202,49.4942,310.6297,-9.4386e-05,-1.791e-05,0.0,0 STARLINK-4282,1 53019U 22076AK  23009.97865855 -.00001791  00000-0 -94386-4 0  9996,2 53019  53.2168 227.8202 0002831  49.4942 310.6297 15.08846437 29133,6917.861,95.437,541.684,537.7669999999998,0.0
53019.0,STARLINK-4282,PAYLOAD,2023-01-10 09:01:35,15.08840558,0.0002484,53.2148,226.0357,52.9201,307.2018,0.00012823,1.753e-05,0.0,0 STARLINK-4282,1 53019U 22076AK  23010.37610292  .00001753  00000-0  12823-3 0  9996,2 53019  53.2148 226.0357 0002484  52.9201 307.2018 15.08840558 29191,6917.879,95.438,541.462,538.025,0.0
53019.0,STARLINK-4282,PAYLOAD,2023-01-10 16:58:30,15.0884234,0.0002428,53.2156,224.5491,55.8179,304.3043,0.00011313,1.513e-05,0.0,0 STARLINK-4282,1 53019U 22076AK  23010.70730176  .00001513  00000-0  11313-3 0  9994,2 53019  53.2156 224.5491 0002428  55.8179 304.3043 15.08842340 28776,6917.873000000001,95.437,541.418,538.059,0.0
53019.0,STARLINK-4282,PAYLOAD,2023-01-11 13:38:31,15.08842601,0.0002325,53.2154,220.68400000000003,59.1854,300.9366,0.00014149,1.964e-05,0.0,0 STARLINK-4282,1 53019U 22076AK  23011.56842182  .00001964  00000-0  14149-3 0  9990,2 53019  53.2154 220.6840 0002325  59.1854 300.9366 15.08842601 29379,6917.871999999999,95.437,541.346,538.129,0.0
53019.0,STARLINK-4282,PAYLOAD,2023-01-11 20:00:04,15.08842362,0.0002256,53.2158,219.4942,60.1444,299.9772,0.00011957,1.615e-05,0.0,0 STARLINK-4282,1 53019U 22076AK  23011.83338168  .00001615  00000-0  11957-3 0  9991,2 53019  53.2158 219.4942 0002256  60.1444 299.9772 15.08842362 28946,6917.873000000001,95.437,541.299,538.177,0.0
53019.0,STARLINK-4282,PAYLOAD,2023-01-12 19:50:51,15.08842432,0.0002195,53.2168,215.0337,64.0939,296.0279,4.2648e-05,3.91e-06,0.0,0 STARLINK-4282,1 53019U 22076AK  23012.82698160  .00000391  00000-0  42648-4 0  9994,2 53019  53.2168 215.0337 0002195  64.0939 296.0279 15.08842432 29568,6917.873000000001,95.437,541.256,538.219,0.0
53019.0,STARLINK-4282,PAYLOAD,2023-01-13 11:44:42,15.08840087,0.0002221,53.2167,212.0601,64.3755,295.7466,6.6855e-05,7.76e-06,0.0,0 STARLINK-4282,1 53019U 22076AK  23013.48938237  .00000776  00000-0  66855-4 0  9992,2 53019  53.2167 212.0601 0002221  64.3755 295.7466 15.08840087 29194,6917.88,95.438,541.2819999999999,538.2090000000001,0.0
53019.0,STARLINK-4282,PAYLOAD,2023-01-13 19:41:38,15.08829881,0.0002081,53.2169,210.5729,66.4396,293.6814,0.00025965,3.845e-05,0.0,0 STARLINK-4282,1 53019U 22076AK  23013.82058538  .00003845  00000-0  25965-3 0  9993,2 53019  53.2169 210.5729 0002081  66.4396 293.6814 15.08829881 29719,6917.911,95.438,541.216,538.337,0.0
53019.0,STARLINK-4282,PAYLOAD,2023-01-13 22:52:24,15.08843598,0.0002195,53.2172,209.9779,67.1604,292.962,6.973e-05,8.22e-06,0.0,0 STARLINK-4282,1 53019U 22076AK  23013.95305991  .00000822  00000-0  69730-4 0  9996,2 53019  53.2172 209.9779 0002195  67.1604 292.9620 15.08843598 29736,6917.869000000001,95.437,541.253,538.216,0.0
53019.0,STARLINK-4282,PAYLOAD,2023-01-14 13:10:53,15.08834711,0.0002177999999999,53.2173,207.3014,66.8979,293.2242,9.879e-05,1.284e-05,0.0,0 STARLINK-4282,1 53019U 22076AK  23014.54922496  .00001284  00000-0  98790-4 0  9998,2 53019  53.2173 207.3014 0002178  66.8979 293.2242 15.08834711 29824,6917.897,95.438,541.268,538.255,0.0
53019.0,STARLINK-4282,PAYLOAD,2023-01-14 22:43:12,15.08827338,0.0002139,53.2176,205.5176,66.2948,293.8268,-5.1593e-05,-1.109e-05,0.0,0 STARLINK-4282,1 53019U 22076AK  23014.94667473 -.00001109  00000-0 -51593-4 0  9991,2 53019  53.2176 205.5176 0002139  66.2948 293.8268 15.08827338 29880,6917.919,95.438,541.264,538.304,0.0
53019.0,STARLINK-4282,PAYLOAD,2023-01-15 13:01:41,15.08829808,0.0001968,53.2185,202.8419,68.732,291.3882,-2.6304e-05,-7.07e-06,0.0,0 STARLINK-4282,1 53019U 22076AK  23015.54283571 -.00000707  00000-0 -26304-4 0  9996,2 53019  53.2185 202.8419 0001968  68.7320 291.3882 15.08829808 29508,6917.911999999999,95.438,541.138,538.415,0.0
53019.0,STARLINK-4282,PAYLOAD,2023-01-15 19:23:13,15.08836897,0.0002035,53.2181,201.6529,69.1095,291.0115,3.1478e-05,2.13e-06,0.0,0 STARLINK-4282,1 53019U 22076AK  23015.80779070  .00000213  00000-0  31478-4 0  9997,2 53019  53.2181 201.6529 0002035  69.1095 291.0115 15.08836897 30013,6917.89,95.438,541.163,538.347,0.0
53019.0,STARLINK-4282,PAYLOAD,2023-01-16 12:52:27,15.08836286,0.0002005999999999,53.2181,198.3819,69.9336,290.1872,0.00015807,2.228e-05,0.0,0 STARLINK-4282,1 53019U 22076AK  23016.53642872  .00002228  00000-0  15807-3 0  9992,2 53019  53.2181 198.3819 0002006  69.9336 290.1872 15.08836286 29651,6917.892,95.438,541.144,538.369,0.0
53019.0,STARLINK-4282,PAYLOAD,2023-01-16 20:49:22,15.08843864,0.0002023,53.218,196.8952,71.0363,289.0849,0.00022066,3.226e-05,0.0,0 STARLINK-4282,1 53019U 22076AK  23016.86762443  .00003226  00000-0  22066-3 0  9999,2 53019  53.2180 196.8952 0002023  71.0363 289.0849 15.08843864 30174,6917.869000000001,95.437,541.133,538.3340000000001,0.0
53019.0,STARLINK-4282,PAYLOAD,2023-01-17 11:07:51,15.08836869,0.0002245,53.218,194.2177,75.7639,284.3602,0.00012749,1.741e-05,0.0,0 STARLINK-4282,1 53019U 22076AK  23017.46379348  .00001741  00000-0  12749-3 0  9991,2 53019  53.2180 194.2177 0002245  75.7639 284.3602 15.08836869 30260,6917.89,95.438,541.308,538.202,0.0
53019.0,STARLINK-4282,PAYLOAD,2023-01-18 10:58:38,15.08844162,0.0002191999999999,53.217,189.7574,75.5729,284.5506,7.5849e-05,9.19e-06,0.0,0 STARLINK-4282,1 53019U 22076AK  23018.45739026  .00000919  00000-0  75849-4 0  9991,2 53019  53.2170 189.7574 0002192  75.5729 284.5506 15.08844162 29941,6917.868,95.437,541.249,538.216,0.0
53019.0,STARLINK-4282,PAYLOAD,2023-01-18 17:20:10,15.08845638,0.0001985,53.2176,188.5689,75.8816,284.2396,7.261899999999999e-05,8.68e-06,0.0,0 STARLINK-4282,1 53019U 22076AK  23018.72234808  .00000868  00000-0  72619-4 0  9994,2 53019  53.2176 188.5689 0001985  75.8816 284.2396 15.08845638 30451,6917.863,95.437,541.101,538.355,0.0
53019.0,STARLINK-4282,PAYLOAD,2023-01-18 18:55:33,15.08848927,0.0001991,53.218,188.2719,76.2411,283.8802,5.1195e-05,5.27e-06,0.0,0 STARLINK-4282,1 53019U 22076AK  23018.78858634  .00000527  00000-0  51195-4 0  9997,2 53019  53.2180 188.2719 0001991  76.2411 283.8802 15.08848927 29998,6917.853,95.437,541.095,538.341,0.0
53019.0,STARLINK-4282,PAYLOAD,2023-01-19 10:49:25,15.08837679,0.000199,53.2181,185.2999,79.7874,280.3342,8.23e-05,1.022e-05,0.0,0 STARLINK-4282,1 53019U 22076AK  23019.45099164  .00001022  00000-0  82300-4 0  9990,2 53019  53.2181 185.2999 0001990  79.7874 280.3342 15.08837679 30564,6917.887,95.438,541.129,538.376,0.0
53019.0,STARLINK-4282,PAYLOAD,2023-01-20 04:18:40,15.08841091,0.0001945,53.2184,182.0283,81.0051,279.1161,9.0655e-05,1.155e-05,0.0,0 STARLINK-4282,1 53019U 22076AK  23020.17962970  .00001155  00000-0  90655-4 0  9994,2 53019  53.2184 182.0283 0001945  81.0051 279.1161 15.08841091 30200,6917.877,95.437,541.0880000000001,538.3969999999999,0.0
53019.0,STARLINK-4282,PAYLOAD,2023-01-20 20:12:30,15.08848261,0.0001986,53.2183,179.0538,84.2135,275.9084,9.7433e-05,1.263e-05,0.0,0 STARLINK-4282,1 53019U 22076AK  23020.84202438  .00001263  00000-0  97433-4 0  9995,2 53019  53.2183 179.0538 0001986  84.2135 275.9084 15.08848261 30777,6917.855,95.437,541.094,538.346,0.0
53019.0,STARLINK-4282,PAYLOAD,2023-01-21 16:52:31,15.08846175,0.0001895,53.2182,175.1883,87.1957,272.9252,0.00014202,1.973e-05,0.0,0 STARLINK-4282,1 53019U 22076AK  23021.70314465  .00001973  00000-0  14202-3 0  9995,2 53019  53.2182 175.1883 0001895  87.1957 272.9252 15.08846175 30900,6917.861999999999,95.437,541.0369999999999,538.4159999999999,0.0
53019.0,STARLINK-4282,PAYLOAD,2023-01-22 10:21:46,15.0883697,0.0001794,53.2201,171.9185,84.8584,275.2612,4.1476e-05,3.72e-06,0.0,0 STARLINK-4282,1 53019U 22076AK  23022.43179234  .00000372  00000-0  41476-4 0  9995,2 53019  53.2201 171.9185 0001794  84.8584 275.2612 15.08836970 31010,6917.89,95.438,540.996,538.514,0.0
53019.0,STARLINK-4282,PAYLOAD,2023-01-22 18:18:41,15.08847376,0.0001768,53.2187,170.4292,88.4385,271.681,7.446e-05,8.97e-06,0.0,0 STARLINK-4282,1 53019U 22076AK  23022.76298405  .00000897  00000-0  74460-4 0  9994,2 53019  53.2187 170.4292 0001768  88.4385 271.6810 15.08847376 31063,6917.858,95.437,540.946,538.5,0.0
53019.0,STARLINK-4282,PAYLOAD,2023-01-23 02:15:38,15.08839366,0.0001817,53.2194,168.9409,95.7817,264.3383,2.8413e-05,1.64e-06,0.0,0 STARLINK-4282,1 53019U 22076AK  23023.09418986  .00000164  00000-0  28413-4 0  9993,2 53019  53.2194 168.9409 0001817  95.7817 264.3383 15.08839366 31119,6917.882,95.438,541.004,538.49,0.0
